[{"OBJECT_NAME":"QIANFAN-35","OBJECT_ID":"2024-185S","EPOCH":"2026-03-03T13:25:00.079680","MEAN_MOTION":14.28114095,"ECCENTRICITY":0.00076911,"INCLINATION":88.9743,"RA_OF_ASC_NODE":67.3742,"ARG_OF_PERICENTER":37.5713,"MEAN_ANOMALY":322.6018,"EPHEMERIS_TYPE":0,"CLASSIFICATION_TYPE":"U","NORAD_CAT_ID":61568,"ELEMENT_SET_NO":999,"REV_AT_EPOCH":8171,"BSTAR":0.00042074724,"MEAN_MOTION_DOT":1.06e-5,"MEAN_MOTION_DDOT":0},{"OBJECT_NAME":"QIANFAN-36","OBJECT_ID":"2024-185T","EPOCH":"2026-03-03T13:34:48.995904","MEAN_MOTION":13.55613286,"ECCENTRICITY":0.00068283,"INCLINATION":88.9716,"RA_OF_ASC_NODE":72.6096,"ARG_OF_PERICENTER":151.4651,"MEAN_ANOMALY":208.6878,"EPHEMERIS_TYPE":0,"CLASSIFICATION_TYPE":"U","NORAD_CAT_ID":61569,"ELEMENT_SET_NO":999,"REV_AT_EPOCH":7887,"BSTAR":0.00020267572,"MEAN_MOTION_DOT":1.53e-6,"MEAN_MOTION_DDOT":0},{"OBJECT_NAME":"QIANFAN-37","OBJECT_ID":"2024-232B","EPOCH":"2026-03-03T13:46:39.381024","MEAN_MOTION":13.51005004,"ECCENTRICITY":0.00016517,"INCLINATION":89.0047,"RA_OF_ASC_NODE":33.1633,"ARG_OF_PERICENTER":96.6092,"MEAN_ANOMALY":263.5248,"EPHEMERIS_TYPE":0,"CLASSIFICATION_TYPE":"U","NORAD_CAT_ID":62238,"ELEMENT_SET_NO":999,"REV_AT_EPOCH":11008,"BSTAR":0.00010581328,"MEAN_MOTION_DOT":8.0e-7,"MEAN_MOTION_DDOT":0},{"OBJECT_NAME":"QIANFAN-38","OBJECT_ID":"2024-232C","EPOCH":"2026-03-03T14:22:08.058432","MEAN_MOTION":13.51003581,"ECCENTRICITY":0.00136029,"INCLINATION":89.0054,"RA_OF_ASC_NODE":33.0822,"ARG_OF_PERICENTER":329.4773,"MEAN_ANOMALY":30.5585,"EPHEMERIS_TYPE":0,"CLASSIFICATION_TYPE":"U","NORAD_CAT_ID":62239,"ELEMENT_SET_NO":999,"REV_AT_EPOCH":11014,"BSTAR":8.283111e-5,"MEAN_MOTION_DOT":6.5e-7,"MEAN_MOTION_DDOT":0},{"OBJECT_NAME":"QIANFAN-39","OBJECT_ID":"2024-232D","EPOCH":"2026-03-03T13:47:29.745312","MEAN_MOTION":14.25434396,"ECCENTRICITY":0.00162908,"INCLINATION":89.0053,"RA_OF_ASC_NODE":28.0605,"ARG_OF_PERICENTER":165.4945,"MEAN_ANOMALY":194.6719,"EPHEMERIS_TYPE":0,"CLASSIFICATION_TYPE":"U","NORAD_CAT_ID":62240,"ELEMENT_SET_NO":999,"REV_AT_EPOCH":11290,"BSTAR":0.00019195118,"MEAN_MOTION_DOT":4.68e-6,"MEAN_MOTION_DDOT":0},{"OBJECT_NAME":"QIANFAN-40","OBJECT_ID":"2024-232E","EPOCH":"2026-03-03T13:22:52.817664","MEAN_MOTION":13.51002798,"ECCENTRICITY":0.00129357,"INCLINATION":89.0082,"RA_OF_ASC_NODE":32.6935,"ARG_OF_PERICENTER":338.6377,"MEAN_ANOMALY":21.4232,"EPHEMERIS_TYPE":0,"CLASSIFICATION_TYPE":"U","NORAD_CAT_ID":62241,"ELEMENT_SET_NO":999,"REV_AT_EPOCH":11050,"BSTAR":9.9641699e-5,"MEAN_MOTION_DOT":7.6e-7,"MEAN_MOTION_DDOT":0},{"OBJECT_NAME":"QIANFAN-41","OBJECT_ID":"2024-232F","EPOCH":"2026-03-03T13:34:47.648928","MEAN_MOTION":13.51004458,"ECCENTRICITY":0.00128939,"INCLINATION":89.0052,"RA_OF_ASC_NODE":33.0356,"ARG_OF_PERICENTER":325.738,"MEAN_ANOMALY":34.2938,"EPHEMERIS_TYPE":0,"CLASSIFICATION_TYPE":"U","NORAD_CAT_ID":62242,"ELEMENT_SET_NO":999,"REV_AT_EPOCH":11016,"BSTAR":0.00010939472,"MEAN_MOTION_DOT":8.3e-7,"MEAN_MOTION_DDOT":0},{"OBJECT_NAME":"QIANFAN-42","OBJECT_ID":"2024-232G","EPOCH":"2026-03-03T11:36:23.655168","MEAN_MOTION":14.24528257,"ECCENTRICITY":0.00148989,"INCLINATION":89.0051,"RA_OF_ASC_NODE":28.1301,"ARG_OF_PERICENTER":171.2984,"MEAN_ANOMALY":188.8469,"EPHEMERIS_TYPE":0,"CLASSIFICATION_TYPE":"U","NORAD_CAT_ID":62243,"ELEMENT_SET_NO":999,"REV_AT_EPOCH":11286,"BSTAR":0.0001794169,"MEAN_MOTION_DOT":4.31e-6,"MEAN_MOTION_DDOT":0},{"OBJECT_NAME":"QIANFAN-43","OBJECT_ID":"2024-232H","EPOCH":"2026-03-03T13:28:48.571392","MEAN_MOTION":13.51004489,"ECCENTRICITY":0.00145826,"INCLINATION":89.0057,"RA_OF_ASC_NODE":33.105,"ARG_OF_PERICENTER":330.4798,"MEAN_ANOMALY":29.5529,"EPHEMERIS_TYPE":0,"CLASSIFICATION_TYPE":"U","NORAD_CAT_ID":62244,"ELEMENT_SET_NO":999,"REV_AT_EPOCH":7877,"BSTAR":9.1023996e-5,"MEAN_MOTION_DOT":7.1e-7,"MEAN_MOTION_DDOT":0},{"OBJECT_NAME":"QIANFAN-44","OBJECT_ID":"2024-232J","EPOCH":"2026-03-03T14:57:41.595840","MEAN_MOTION":13.5100247,"ECCENTRICITY":0.00127108,"INCLINATION":89.0055,"RA_OF_ASC_NODE":32.9082,"ARG_OF_PERICENTER":328.1529,"MEAN_ANOMALY":31.8852,"EPHEMERIS_TYPE":0,"CLASSIFICATION_TYPE":"U","NORAD_CAT_ID":62245,"ELEMENT_SET_NO":999,"REV_AT_EPOCH":11025,"BSTAR":9.764923e-5,"MEAN_MOTION_DOT":7.5e-7,"MEAN_MOTION_DDOT":0},{"OBJECT_NAME":"QIANFAN-45","OBJECT_ID":"2024-232K","EPOCH":"2026-03-03T14:10:19.714080","MEAN_MOTION":13.51000124,"ECCENTRICITY":0.00133593,"INCLINATION":89.0059,"RA_OF_ASC_NODE":33.0608,"ARG_OF_PERICENTER":327.4714,"MEAN_ANOMALY":32.5613,"EPHEMERIS_TYPE":0,"CLASSIFICATION_TYPE":"U","NORAD_CAT_ID":62246,"ELEMENT_SET_NO":999,"REV_AT_EPOCH":11017,"BSTAR":7.0429086e-5,"MEAN_MOTION_DOT":5.7e-7,"MEAN_MOTION_DDOT":0},{"OBJECT_NAME":"QIANFAN-46","OBJECT_ID":"2024-232L","EPOCH":"2026-03-03T14:45:49.464576","MEAN_MOTION":13.51003044,"ECCENTRICITY":0.00135896,"INCLINATION":89.0054,"RA_OF_ASC_NODE":33.124,"ARG_OF_PERICENTER":333.2113,"MEAN_ANOMALY":26.8335,"EPHEMERIS_TYPE":0,"CLASSIFICATION_TYPE":"U","NORAD_CAT_ID":62247,"ELEMENT_SET_NO":999,"REV_AT_EPOCH":11013,"BSTAR":0.00010179469,"MEAN_MOTION_DOT":7.8e-7,"MEAN_MOTION_DDOT":0},{"OBJECT_NAME":"QIANFAN-47","OBJECT_ID":"2024-232M","EPOCH":"2026-03-03T14:51:44.706816","MEAN_MOTION":13.51002983,"ECCENTRICITY":0.00139956,"INCLINATION":89.0051,"RA_OF_ASC_NODE":33.0534,"ARG_OF_PERICENTER":332.044,"MEAN_ANOMALY":27.9958,"EPHEMERIS_TYPE":0,"CLASSIFICATION_TYPE":"U","NORAD_CAT_ID":62248,"ELEMENT_SET_NO":999,"REV_AT_EPOCH":11016,"BSTAR":9.8507977e-5,"MEAN_MOTION_DOT":7.5e-7,"MEAN_MOTION_DDOT":0},{"OBJECT_NAME":"QIANFAN-48","OBJECT_ID":"2024-232N","EPOCH":"2026-03-03T13:58:25.943808","MEAN_MOTION":13.51003134,"ECCENTRICITY":0.00163253,"INCLINATION":89.0054,"RA_OF_ASC_NODE":33.0621,"ARG_OF_PERICENTER":333.8561,"MEAN_ANOMALY":26.1764,"EPHEMERIS_TYPE":0,"CLASSIFICATION_TYPE":"U","NORAD_CAT_ID":62249,"ELEMENT_SET_NO":999,"REV_AT_EPOCH":11016,"BSTAR":8.8387816e-5,"MEAN_MOTION_DOT":6.9e-7,"MEAN_MOTION_DDOT":0},{"OBJECT_NAME":"QIANFAN-49","OBJECT_ID":"2024-232P","EPOCH":"2026-03-03T13:40:39.614016","MEAN_MOTION":13.51002236,"ECCENTRICITY":0.00132393,"INCLINATION":89.0053,"RA_OF_ASC_NODE":33.0753,"ARG_OF_PERICENTER":329.6302,"MEAN_ANOMALY":30.4081,"EPHEMERIS_TYPE":0,"CLASSIFICATION_TYPE":"U","NORAD_CAT_ID":62250,"ELEMENT_SET_NO":999,"REV_AT_EPOCH":7875,"BSTAR":9.4447526e-5,"MEAN_MOTION_DOT":7.3e-7,"MEAN_MOTION_DDOT":0},{"OBJECT_NAME":"QIANFAN-50","OBJECT_ID":"2024-232Q","EPOCH":"2026-03-03T14:16:11.703360","MEAN_MOTION":13.51003183,"ECCENTRICITY":0.00149263,"INCLINATION":89.0059,"RA_OF_ASC_NODE":33.0853,"ARG_OF_PERICENTER":330.1226,"MEAN_ANOMALY":29.9071,"EPHEMERIS_TYPE":0,"CLASSIFICATION_TYPE":"U","NORAD_CAT_ID":62251,"ELEMENT_SET_NO":999,"REV_AT_EPOCH":7878,"BSTAR":7.3330561e-5,"MEAN_MOTION_DOT":5.9e-7,"MEAN_MOTION_DDOT":0},{"OBJECT_NAME":"QIANFAN-51","OBJECT_ID":"2024-232R","EPOCH":"2026-03-03T13:52:32.549664","MEAN_MOTION":13.5100401,"ECCENTRICITY":0.00125671,"INCLINATION":89.0053,"RA_OF_ASC_NODE":33.0759,"ARG_OF_PERICENTER":335.4619,"MEAN_ANOMALY":24.5932,"EPHEMERIS_TYPE":0,"CLASSIFICATION_TYPE":"U","NORAD_CAT_ID":62252,"ELEMENT_SET_NO":999,"REV_AT_EPOCH":7877,"BSTAR":9.4796856e-5,"MEAN_MOTION_DOT":7.3e-7,"MEAN_MOTION_DDOT":0}]
