QIANFAN-35              
1 61568U 24185S   26062.55902870  .00001060  00000+0  42075-3 0  9995
2 61568  88.9743  67.3742 0007691  37.5713 322.6018 14.28114095 81719
QIANFAN-36              
1 61569U 24185T   26062.56584486  .00000153  00000+0  20268-3 0  9998
2 61569  88.9716  72.6096 0006828 151.4651 208.6878 13.55613286 78874
QIANFAN-37              
1 62238U 24232B   26062.57406691  .00000080  00000+0  10581-3 0  9993
2 62238  89.0047  33.1633 0001651  96.6092 263.5248 13.51005004110084
QIANFAN-38              
1 62239U 24232C   26062.59870438  .00000065  00000+0  82831-4 0  9991
2 62239  89.0054  33.0822 0013602 329.4773  30.5585 13.51003581110145
QIANFAN-39              
1 62240U 24232D   26062.57464983  .00000468  00000+0  19195-3 0  9994
2 62240  89.0053  28.0605 0016290 165.4945 194.6719 14.25434396112905
QIANFAN-40              
1 62241U 24232E   26062.55755576  .00000076  00000+0  99642-4 0  9995
2 62241  89.0082  32.6935 0012935 338.6377  21.4232 13.51002798110506
QIANFAN-41              
1 62242U 24232F   26062.56582927  .00000083  00000+0  10939-3 0  9994
2 62242  89.0052  33.0356 0012893 325.7380  34.2938 13.51004458110162
QIANFAN-42              
1 62243U 24232G   26062.48360712  .00000431  00000+0  17942-3 0  9990
2 62243  89.0051  28.1301 0014898 171.2984 188.8469 14.24528257112861
QIANFAN-43              
1 62244U 24232H   26062.56167328  .00000071  00000+0  91024-4 0  9992
2 62244  89.0057  33.1050 0014582 330.4798  29.5529 13.51004489 78771
QIANFAN-44              
1 62245U 24232J   26062.62339810  .00000075  00000+0  97649-4 0  9990
2 62245  89.0055  32.9082 0012710 328.1529  31.8852 13.51002470110252
QIANFAN-45              
1 62246U 24232K   26062.59050595  .00000057  00000+0  70429-4 0  9994
2 62246  89.0059  33.0608 0013359 327.4714  32.5613 13.51000124110179
QIANFAN-46              
1 62247U 24232L   26062.61515584  .00000078  00000+0  10179-3 0  9990
2 62247  89.0054  33.1240 0013589 333.2113  26.8335 13.51003044110138
QIANFAN-47              
1 62248U 24232M   26062.61926744  .00000075  00000+0  98508-4 0  9995
2 62248  89.0051  33.0534 0013995 332.0440  27.9958 13.51002983110169
QIANFAN-48              
1 62249U 24232N   26062.58224472  .00000069  00000+0  88388-4 0  9999
2 62249  89.0054  33.0621 0016325 333.8561  26.1764 13.51003134110168
QIANFAN-49              
1 62250U 24232P   26062.56990294  .00000073  00000+0  94448-4 0  9990
2 62250  89.0053  33.0753 0013239 329.6302  30.4081 13.51002236 78752
QIANFAN-50              
1 62251U 24232Q   26062.59457990  .00000059  00000+0  73331-4 0  9997
2 62251  89.0059  33.0853 0014926 330.1226  29.9071 13.51003183 78783
QIANFAN-51              
1 62252U 24232R   26062.57815451  .00000073  00000+0  94797-4 0  9991
2 62252  89.0053  33.0759 0012567 335.4619  24.5932 13.51004010 78772
